{"type": "FeatureCollection", "features": [ {"type": "Feature", "properties": {"norad_id": 66820, "name": "KOMPSAT-7", "group": "last-30-days", "lat": 23.651304690245468, "lon": 130.75761905692232, "alt_km": 559.3981025613757, "timestamp": "2025-12-27T18:38:02.204289+00:00", "meta": {"OBJECT_NAME": "KOMPSAT-7", "OBJECT_ID": "2025-279A", "EPOCH": "2025-12-27T06:44:23.364672", "MEAN_MOTION": 15.00856737, "ECCENTRICITY": 0.00099979, "INCLINATION": 97.6456, "RA_OF_ASC_NODE": 306.8974, "ARG_OF_PERICENTER": 208.4889, "MEAN_ANOMALY": 151.579, "EPHEMERIS_TYPE": 0, "CLASSIFICATION_TYPE": "U", "NORAD_CAT_ID": 66820, "ELEMENT_SET_NO": 999, "REV_AT_EPOCH": 383, "BSTAR": 0.00026762105, "MEAN_MOTION_DOT": 3.347e-05, "MEAN_MOTION_DDOT": 0}, "tle": {"line1": "1 66820U 25279A   25361.28082598  .00003347  00000+0  26762-3 0  9998", "line2": "2 66820  97.6456 306.8974 0009997 208.4889 151.5790 15.00856737  3835"}}, "geometry": {"type": "Point", "coordinates": [130.75761905692232, 23.651304690245468]}}, {"type": "Feature", "properties": {"norad_id": 66821, "name": "STARLINK-35966", "group": "last-30-days", "lat": 34.11408308704279, "lon": -37.05318360778052, "alt_km": 410.8204074172254, "timestamp": "2025-12-27T18:38:02.204299+00:00", "meta": {"OBJECT_NAME": "STARLINK-35966", "OBJECT_ID": "2025-280A", "EPOCH": "2025-12-27T11:49:57.362592", "MEAN_MOTION": 15.52372791, "ECCENTRICITY": 0.0006581, "INCLINATION": 70.0004, "RA_OF_ASC_NODE": 158.0065, "ARG_OF_PERICENTER": 290.4038, "MEAN_ANOMALY": 69.6441, "EPHEMERIS_TYPE": 0, "CLASSIFICATION_TYPE": "U", "NORAD_CAT_ID": 66821, "ELEMENT_SET_NO": 999, "REV_AT_EPOCH": 522, "BSTAR": -0.00020586, "MEAN_MOTION_DOT": -0.00012756, "MEAN_MOTION_DDOT": 0}, "tle": {"line1": "1 66821U 25280A   25361.49302503 -.00012756  00000+0 -20586-3 0  9999", "line2": "2 66821  70.0004 158.0065 0006581 290.4038  69.6441 15.52372791  5228"}}, "geometry": {"type": "Point", "coordinates": [-37.05318360778052, 34.11408308704279]}}, {"type": "Feature", "properties": {"norad_id": 66822, "name": "STARLINK-35958", "group": "last-30-days", "lat": 32.03697270911, "lon": -35.94635431938992, "alt_km": 408.1079798667106, "timestamp": "2025-12-27T18:38:02.204309+00:00", "meta": {"OBJECT_NAME": "STARLINK-35958", "OBJECT_ID": "2025-280B", "EPOCH": "2025-12-27T11:49:25.986432", "MEAN_MOTION": 15.52551239, "ECCENTRICITY": 0.0003557, "INCLINATION": 70.0002, "RA_OF_ASC_NODE": 158.0053, "ARG_OF_PERICENTER": 269.6939, "MEAN_ANOMALY": 90.384, "EPHEMERIS_TYPE": 0, "CLASSIFICATION_TYPE": "U", "NORAD_CAT_ID": 66822, "ELEMENT_SET_NO": 999, "REV_AT_EPOCH": 522, "BSTAR": 0.0011529, "MEAN_MOTION_DOT": 0.00071488, "MEAN_MOTION_DDOT": 0}, "tle": {"line1": "1 66822U 25280B   25361.49266188  .00071488  00000+0  11529-2 0  9999", "line2": "2 66822  70.0002 158.0053 0003557 269.6939  90.3840 15.52551239  5222"}}, "geometry": {"type": "Point", "coordinates": [-35.94635431938992, 32.03697270911]}}, {"type": "Feature", "properties": {"norad_id": 66823, "name": "STARLINK-35957", "group": "last-30-days", "lat": 30.257470936891867, "lon": -35.041779382026505, "alt_km": 408.11114562779494, "timestamp": "2025-12-27T18:38:02.204320+00:00", "meta": {"OBJECT_NAME": "STARLINK-35957", "OBJECT_ID": "2025-280C", "EPOCH": "2025-12-27T11:48:56.473056", "MEAN_MOTION": 15.52561587, "ECCENTRICITY": 0.0003259, "INCLINATION": 70.0001, "RA_OF_ASC_NODE": 158.0036, "ARG_OF_PERICENTER": 269.6818, "MEAN_ANOMALY": 90.3996, "EPHEMERIS_TYPE": 0, "CLASSIFICATION_TYPE": "U", "NORAD_CAT_ID": 66823, "ELEMENT_SET_NO": 999, "REV_AT_EPOCH": 522, "BSTAR": 0.0019504, "MEAN_MOTION_DOT": 0.00121865, "MEAN_MOTION_DDOT": 0}, "tle": {"line1": "1 66823U 25280C   25361.49232029  .00121865  00000+0  19504-2 0  9993", "line2": "2 66823  70.0001 158.0036 0003259 269.6818  90.3996 15.52561587  5227"}}, "geometry": {"type": "Point", "coordinates": [-35.041779382026505, 30.257470936891867]}}, {"type": "Feature", "properties": {"norad_id": 66824, "name": "STARLINK-35896", "group": "last-30-days", "lat": 28.48192890474268, "lon": -34.173643761227574, "alt_km": 408.2755293806067, "timestamp": "2025-12-27T18:38:02.204332+00:00", "meta": {"OBJECT_NAME": "STARLINK-35896", "OBJECT_ID": "2025-280D", "EPOCH": "2025-12-27T11:48:26.873280", "MEAN_MOTION": 15.52564737, "ECCENTRICITY": 0.0003224, "INCLINATION": 70, "RA_OF_ASC_NODE": 158.0026, "ARG_OF_PERICENTER": 270.3224, "MEAN_ANOMALY": 89.7593, "EPHEMERIS_TYPE": 0, "CLASSIFICATION_TYPE": "U", "NORAD_CAT_ID": 66824, "ELEMENT_SET_NO": 999, "REV_AT_EPOCH": 522, "BSTAR": 0.0025451, "MEAN_MOTION_DOT": 0.00159859, "MEAN_MOTION_DDOT": 0}, "tle": {"line1": "1 66824U 25280D   25361.49197770  .00159859  00000+0  25451-2 0  9999", "line2": "2 66824  70.0000 158.0026 0003224 270.3224  89.7593 15.52564737  5223"}}, "geometry": {"type": "Point", "coordinates": [-34.173643761227574, 28.48192890474268]}}, {"type": "Feature", "properties": {"norad_id": 66825, "name": "STARLINK-35476", "group": "last-30-days", "lat": 26.744886153001865, "lon": -33.355047109549744, "alt_km": 408.68374143804886, "timestamp": "2025-12-27T18:38:02.204342+00:00", "meta": {"OBJECT_NAME": "STARLINK-35476", "OBJECT_ID": "2025-280E", "EPOCH": "2025-12-27T11:47:57.145632", "MEAN_MOTION": 15.52547274, "ECCENTRICITY": 0.0003194, "INCLINATION": 70.0002, "RA_OF_ASC_NODE": 158.001, "ARG_OF_PERICENTER": 270.8101, "MEAN_ANOMALY": 89.272, "EPHEMERIS_TYPE": 0, "CLASSIFICATION_TYPE": "U", "NORAD_CAT_ID": 66825, "ELEMENT_SET_NO": 999, "REV_AT_EPOCH": 522, "BSTAR": 0.0012113, "MEAN_MOTION_DOT": 0.00075135, "MEAN_MOTION_DDOT": 0}, "tle": {"line1": "1 66825U 25280E   25361.49163363  .00075135  00000+0  12113-2 0  9996", "line2": "2 66825  70.0002 158.0010 0003194 270.8101  89.2720 15.52547274  5228"}}, "geometry": {"type": "Point", "coordinates": [-33.355047109549744, 26.744886153001865]}}, {"type": "Feature", "properties": {"norad_id": 66826, "name": "STARLINK-35898", "group": "last-30-days", "lat": 24.918501941229106, "lon": -32.523235112341176, "alt_km": 408.5942120840691, "timestamp": "2025-12-27T18:38:02.204351+00:00", "meta": {"OBJECT_NAME": "STARLINK-35898", "OBJECT_ID": "2025-280F", "EPOCH": "2025-12-27T11:47:27.777408", "MEAN_MOTION": 15.52606853, "ECCENTRICITY": 0.0002978, "INCLINATION": 70.0002, "RA_OF_ASC_NODE": 157.9995, "ARG_OF_PERICENTER": 269.7878, "MEAN_ANOMALY": 90.2968, "EPHEMERIS_TYPE": 0, "CLASSIFICATION_TYPE": "U", "NORAD_CAT_ID": 66826, "ELEMENT_SET_NO": 999, "REV_AT_EPOCH": 522, "BSTAR": 0.0016734, "MEAN_MOTION_DOT": 0.00104468, "MEAN_MOTION_DDOT": 0}, "tle": {"line1": "1 66826U 25280F   25361.49129372  .00104468  00000+0  16734-2 0  9994", "line2": "2 66826  70.0002 157.9995 0002978 269.7878  90.2968 15.52606853  5221"}}, "geometry": {"type": "Point", "coordinates": [-32.523235112341176, 24.918501941229106]}}, {"type": "Feature", "properties": {"norad_id": 66827, "name": "STARLINK-35959", "group": "last-30-days", "lat": 23.154434555483004, "lon": -31.744648699964475, "alt_km": 409.1016078786279, "timestamp": "2025-12-27T18:38:02.204361+00:00", "meta": {"OBJECT_NAME": "STARLINK-35959", "OBJECT_ID": "2025-280G", "EPOCH": "2025-12-27T11:46:57.823392", "MEAN_MOTION": 15.5257646, "ECCENTRICITY": 0.0003425, "INCLINATION": 70.0002, "RA_OF_ASC_NODE": 157.9982, "ARG_OF_PERICENTER": 272.386, "MEAN_ANOMALY": 87.6935, "EPHEMERIS_TYPE": 0, "CLASSIFICATION_TYPE": "U", "NORAD_CAT_ID": 66827, "ELEMENT_SET_NO": 999, "REV_AT_EPOCH": 522, "BSTAR": 0.0019084, "MEAN_MOTION_DOT": 0.00119266, "MEAN_MOTION_DDOT": 0}, "tle": {"line1": "1 66827U 25280G   25361.49094703  .00119266  00000+0  19084-2 0  9997", "line2": "2 66827  70.0002 157.9982 0003425 272.3860  87.6935 15.52576460  5221"}}, "geometry": {"type": "Point", "coordinates": [-31.744648699964475, 23.154434555483004]}}, {"type": "Feature", "properties": {"norad_id": 66828, "name": "STARLINK-35982", "group": "last-30-days", "lat": 19.51261810351634, "lon": -30.203368787412035, "alt_km": 409.38727206995554, "timestamp": "2025-12-27T18:38:02.204371+00:00", "meta": {"OBJECT_NAME": "STARLINK-35982", "OBJECT_ID": "2025-280H", "EPOCH": "2025-12-27T04:02:05.439264", "MEAN_MOTION": 15.52538527, "ECCENTRICITY": 0.00031976, "INCLINATION": 70.0003, "RA_OF_ASC_NODE": 158.8781, "ARG_OF_PERICENTER": 275.6823, "MEAN_ANOMALY": 84.3999, "EPHEMERIS_TYPE": 0, "CLASSIFICATION_TYPE": "U", "NORAD_CAT_ID": 66828, "ELEMENT_SET_NO": 999, "REV_AT_EPOCH": 517, "BSTAR": 0.0022656765, "MEAN_MOTION_DOT": 0.00141831, "MEAN_MOTION_DDOT": 0}, "tle": {"line1": "1 66828U 25280H   25361.16811851  .00141831  00000+0  22657-2 0  9996", "line2": "2 66828  70.0003 158.8781 0003197 275.6823  84.3999 15.52538527  5171"}}, "geometry": {"type": "Point", "coordinates": [-30.203368787412035, 19.51261810351634]}}, {"type": "Feature", "properties": {"norad_id": 66829, "name": "STARLINK-36084", "group": "last-30-days", "lat": 21.435285798534707, "lon": -31.006764434015402, "alt_km": 409.2101016972074, "timestamp": "2025-12-27T18:38:02.204381+00:00", "meta": {"OBJECT_NAME": "STARLINK-36084", "OBJECT_ID": "2025-280J", "EPOCH": "2025-12-26T21:51:29.345184", "MEAN_MOTION": 15.52482745, "ECCENTRICITY": 0.0002994, "INCLINATION": 70.0004, "RA_OF_ASC_NODE": 159.5847, "ARG_OF_PERICENTER": 276.2035, "MEAN_ANOMALY": 83.881, "EPHEMERIS_TYPE": 0, "CLASSIFICATION_TYPE": "U", "NORAD_CAT_ID": 66829, "ELEMENT_SET_NO": 999, "REV_AT_EPOCH": 513, "BSTAR": 0.0017316, "MEAN_MOTION_DOT": 0.00107671, "MEAN_MOTION_DDOT": 0}, "tle": {"line1": "1 66829U 25280J   25360.91075631  .00107671  00000+0  17316-2 0  9997", "line2": "2 66829  70.0004 159.5847 0002994 276.2035  83.8810 15.52482745  5132"}}, "geometry": {"type": "Point", "coordinates": [-31.006764434015402, 21.435285798534707]}}]}